[{"OBJECT_NAME":"GAOFEN-9 05","OBJECT_ID":"2020-058A","EPOCH":"2026-03-10T00:01:50.876256","MEAN_MOTION":15.30293976,"ECCENTRICITY":0.0010522,"INCLINATION":97.2228,"RA_OF_ASC_NODE":111.963,"ARG_OF_PERICENTER":91.0204,"MEAN_ANOMALY":269.2242,"EPHEMERIS_TYPE":0,"CLASSIFICATION_TYPE":"U","NORAD_CAT_ID":46232,"ELEMENT_SET_NO":999,"REV_AT_EPOCH":30843,"BSTAR":0.00025120304,"MEAN_MOTION_DOT":7.299e-5,"MEAN_MOTION_DDOT":0},{"OBJECT_NAME":"STARLINK-33607","OBJECT_ID":"2025-057S","EPOCH":"2026-03-09T06:28:36.599520","MEAN_MOTION":15.27588483,"ECCENTRICITY":0.00021882,"INCLINATION":43.0058,"RA_OF_ASC_NODE":33.1876,"ARG_OF_PERICENTER":254.5489,"MEAN_ANOMALY":105.5121,"EPHEMERIS_TYPE":0,"CLASSIFICATION_TYPE":"U","NORAD_CAT_ID":63323,"ELEMENT_SET_NO":999,"REV_AT_EPOCH":5567,"BSTAR":0.0010021031,"MEAN_MOTION_DOT":0.00027424,"MEAN_MOTION_DDOT":0}]
